name,region,country,email,phone
Boris Noel,Cartago,Netherlands,in.consectetuer@aol.net,1-581-467-5132
Quintessa Bradford,Vorarlberg,Turkey,auctor.quis@yahoo.org,(634) 812-7630
Yolanda Camacho,South Australia,Russian Federation,sit.amet@icloud.net,1-688-346-1876
Charissa Franks,Coquimbo,New Zealand,eu@aol.couk,(918) 333-7222
Jemima Cunningham,Lower Austria,Spain,tellus.lorem@yahoo.com,(382) 137-8390
Aristotle Bernard,East Region,United States,hendrerit.consectetuer.cursus@hotmail.ca,1-605-219-6639
Lyle Key,Bạc Liêu,India,sem.magna@icloud.ca,1-455-525-4303
Rahim Sellers,Styria,Spain,tincidunt@icloud.org,1-499-678-1135
Jena Wallace,Benue,Pakistan,orci.adipiscing.non@outlook.com,1-341-331-1105
Brady Powers,Antwerpen,Brazil,eu.eleifend.nec@google.org,1-231-812-5525
Brian Hebert,Ogun,Turkey,justo.sit@aol.net,1-376-151-3649
Leila Lucas,Xīnán,India,facilisis.eget@google.ca,1-632-631-1722
Alexandra Patton,Tripura,Singapore,bibendum.ullamcorper.duis@hotmail.com,1-297-107-4146
Jonas Glover,Cusco,South Africa,metus@aol.org,1-458-656-0424
Lane Mcintosh,Davao Region,Colombia,porta@yahoo.ca,(534) 249-4697
Jameson Shelton,North Gyeongsang,India,eu.ligula@outlook.com,1-404-458-4662
Bert Hutchinson,Victoria,Germany,arcu.et@hotmail.org,1-532-322-2293
Aladdin Strong,Luxemburg,Germany,faucibus.orci@protonmail.net,(188) 946-6585
Micah Payne,Galicia,Brazil,erat.sed@aol.couk,1-368-266-4327
Buffy Hardy,Zakarpattia oblast,Austria,nunc@yahoo.org,1-422-453-2930
Yen Garrett,Santa Catarina,South Africa,non.quam@aol.org,1-787-382-2323
Porter Baird,West-Vlaanderen,Italy,eu.nulla.at@google.couk,1-634-201-3892
Kelsey Shepard,Alberta,Pakistan,sed.consequat@google.couk,(899) 338-6667
Oleg Sears,North Island,Poland,et.ipsum@yahoo.org,(260) 225-8788
Oscar Mosley,Osun,Spain,senectus.et@hotmail.ca,1-629-621-5431
Clare Gomez,Goa,Pakistan,id.enim@yahoo.edu,1-488-311-8783
Jolie Savage,Ulster,United Kingdom,orci.phasellus.dapibus@hotmail.com,(576) 965-5914
Ima Park,Yukon,Ireland,nec.eleifend@google.org,1-849-514-6356
Jessica York,Heredia,China,eu.nibh.vulputate@icloud.net,(584) 891-1624
Isaiah Pierce,Calabarzon,Italy,aliquam.enim@google.com,(992) 697-5555
Nathan Kline,Adana,Australia,eu@aol.edu,(166) 454-7643
Rahim Shepherd,South Gyeongsang,Canada,vitae.sodales@outlook.com,1-858-822-6318
Phyllis Kennedy,Bretagne,Canada,nisl.nulla@protonmail.net,(371) 882-3381
Stephen Short,Languedoc-Roussillon,Norway,egestas.duis@google.edu,(714) 788-6358
Kibo Norris,Zaporizhzhia oblast,South Korea,cras@google.edu,1-911-487-1491
Audrey Bowman,Namen,Turkey,porttitor.vulputate@outlook.couk,1-268-853-7427
Guinevere Shaffer,North Island,Russian Federation,metus.facilisis@icloud.couk,(818) 844-6842
Kellie Sheppard,La Rioja,Mexico,sapien@google.ca,1-256-366-0273
Graiden Stark,Heredia,South Korea,metus.aliquam.erat@google.net,(481) 422-4805
Ezekiel Conway,łódzkie,Germany,taciti.sociosqu.ad@hotmail.com,(687) 984-6625
India Peters,Jigawa,Chile,neque.nullam@outlook.couk,(517) 877-3728
Branden Meadows,Zhōngnán,Germany,risus.morbi@outlook.net,1-647-632-7500
Sandra Harris,Maule,Peru,egestas.ligula.nullam@yahoo.com,(700) 275-7130
Callum O'brien,Huádōng,Colombia,phasellus.ornare.fusce@aol.com,(445) 837-0748
Adam Castaneda,Clackmannanshire,Germany,sed.eu.nibh@hotmail.ca,(445) 933-7435
Keane Hartman,Putumayo,Nigeria,facilisis@aol.com,(327) 665-3766
Alfreda Small,Rio de Janeiro,Austria,donec.tempus@outlook.com,1-224-538-0754
Kylynn Burgess,North-East Region,Mexico,vel.faucibus@outlook.org,1-432-363-1310
Zorita Nelson,Ivanovo Oblast,Vietnam,quis.diam@google.com,(396) 926-7984
Alice May,Nordrhein-Westphalen,Pakistan,odio.sagittis@aol.ca,1-228-459-6205
Brian Moody,Brussels Hoofdstedelijk Gewest,Turkey,in@google.net,1-628-417-4828
Scarlett Mccarty,South Jeolla,Sweden,sagittis.lobortis@protonmail.edu,1-337-655-2312
Madison Pennington,Ancash,Australia,fames.ac@outlook.net,1-730-515-5534
Valentine Ballard,Akwa Ibom,India,non.justo.proin@google.edu,1-577-647-0421
Castor Howard,Dumfriesshire,South Korea,mollis.vitae@aol.ca,(355) 424-1328
Abra Pugh,Stockholms län,Costa Rica,maecenas.iaculis@protonmail.net,1-861-414-2781
Troy Palmer,Drenthe,Vietnam,in.ornare.sagittis@outlook.ca,(623) 886-5153
Pamela Newman,South Gyeongsang,Nigeria,sit@protonmail.ca,(246) 523-5745
Nichole Cooke,Arequipa,Poland,est.ac@icloud.ca,1-197-877-5674
Raymond Waters,Pernambuco,Philippines,integer.tincidunt@yahoo.com,(784) 129-7431
Silas Wolfe,Central Visayas,South Africa,fusce.dolor@google.net,(462) 621-9164
Naomi Strong,Vichada,Singapore,at.augue@aol.com,(759) 237-8970
Devin Bowers,Maranhão,Russian Federation,felis.orci@hotmail.com,(572) 776-5715
Ingrid Sloan,Dolnośląskie,China,mattis.semper@outlook.org,1-463-839-4795
Lunea Knapp,North Island,Mexico,magna@yahoo.com,1-872-917-2775
Kelsie Day,Biobío,Russian Federation,non.quam.pellentesque@google.net,1-221-324-7725
Kaye Kidd,Niedersachsen,United States,in@hotmail.net,1-150-723-1769
Roanna Jackson,Nova Scotia,Austria,condimentum@hotmail.net,(684) 314-8163
Laura Reid,Lubuskie,Belgium,non.sollicitudin@aol.ca,1-633-803-5406
Honorato Lott,Khyber Pakhtoonkhwa,Ukraine,aliquet.libero.integer@outlook.ca,1-276-429-7446
Cora Gonzales,Jeju,Australia,mauris.ipsum@yahoo.com,(345) 444-6720
Cynthia Massey,Stockholms län,Colombia,nonummy.fusce@hotmail.ca,(824) 411-4889
Amber Calderon,KwaZulu-Natal,Norway,suscipit@outlook.ca,1-720-221-5128
Moses Acosta,Jönköpings län,Nigeria,faucibus.lectus@yahoo.org,(830) 858-8848
Judah Chen,Davao Region,Chile,purus@protonmail.couk,(697) 807-4089
Yen Cohen,Cundinamarca,Russian Federation,ut.nec@hotmail.com,1-868-277-5343
Cleo Harper,Victoria,Netherlands,cursus.et@hotmail.ca,1-422-258-6521
Veda Nash,Huádōng,Sweden,elit@aol.com,(525) 516-1536
Martena Dudley,Sokoto,Netherlands,nam.porttitor@outlook.edu,(432) 338-3846
Alexa Bowman,Gävleborgs län,France,auctor.velit@protonmail.edu,(418) 250-4689
Kirby Gentry,Uttarakhand,Indonesia,dictum.proin@outlook.ca,(740) 104-2437
Tanisha Duffy,Victoria,United Kingdom,rhoncus.id.mollis@hotmail.edu,1-185-651-9127
Bernard Knox,Southeast Sulawesi,Norway,est.mauris@icloud.com,(332) 478-2234
Gretchen Wong,Marche,United Kingdom,sit@outlook.net,1-463-641-7712
Jaime Nolan,Alajuela,Singapore,dui@protonmail.edu,1-936-742-1137
Nathan Spears,Drenthe,Belgium,lectus@protonmail.org,(675) 925-7491
Jerome Hall,West Region,Sweden,sed.consequat@icloud.org,1-876-621-5735
Jakeem Galloway,Warmińsko-mazurskie,Singapore,amet.ultricies@protonmail.couk,1-366-672-0542
Adria Adkins,Maharastra,Mexico,a.dui.cras@protonmail.com,(425) 224-5472
Rebecca Parsons,Wyoming,Spain,vitae.aliquam@hotmail.net,1-767-845-4628
Vance Schmidt,Şanlıurfa,Germany,at.risus.nunc@yahoo.com,(125) 532-9852
Leroy Cross,South Island,Colombia,a@aol.edu,(688) 116-0935
Porter Craft,Pennsylvania,Poland,bibendum.ullamcorper@google.edu,1-514-935-5237
Leah Burton,South Jeolla,Brazil,pellentesque.massa@icloud.com,(223) 265-4669
Prescott Ross,Kahramanmaraş,Germany,ultrices.iaculis@aol.com,(757) 319-5704
Melyssa Horton,Goiás,Italy,ornare.facilisis.eget@aol.com,(846) 744-1536
Nichole Burch,South Sumatra,Belgium,nascetur.ridiculus@protonmail.edu,(423) 440-3824
Price Bullock,Navarra,Brazil,aenean.eget@hotmail.org,1-287-676-4913
Stewart Herrera,Valle d'Aosta,Pakistan,nullam.lobortis@icloud.ca,1-782-185-2142
Fatima Hamilton,Cao Bằng,United Kingdom,adipiscing.non.luctus@outlook.ca,(538) 537-7909